ONEWEB-0351             
1 49215U 21083AF  26083.10856104  .00000000  00000+0 -32955-4 0  9997
2 49215  87.9152 291.4264 0002582  87.1571 272.9858 13.20772058225543
ONEWEB-0352             
1 49216U 21083AG  26083.16320222  .00000292  00000+0  76476-3 0  9998
2 49216  87.9015 337.1565 0002175  81.5114 278.6261 13.13471932219861
ONEWEB-0354             
1 49217U 21083AH  26083.28545878  .00000062  00000+0  12051-3 0  9992
2 49217  87.9151 291.3902 0001627  79.1088 281.0229 13.20771608225605
ONEWEB-0355             
1 49218U 21083AJ  26083.19212113 -.00000192  00000+0 -56104-3 0  9999
2 49218  87.9008 337.1599 0001913  75.3211 284.8130 13.13470799219741
ONEWEB-0357             
1 49219U 21083AK  26083.28230197  .00000080  00000+0  16434-3 0  9998
2 49219  87.9147 291.3856 0001876  87.8384 272.2964 13.20771508225608
ONEWEB-0332             
1 49279U 21090A   26083.11894452 -.00000061  00000+0 -19845-3 0  9994
2 49279  87.8959 306.6879 0001785  90.3844 269.7490 13.14504171216404
ONEWEB-0347             
1 49280U 21090B   26083.27283745  .00000048  00000+0  86821-4 0  9992
2 49280  87.9150 291.3963 0001749  98.1206 262.0126 13.20771716219832
ONEWEB-0349             
1 49281U 21090C   26083.30440505  .00000051  00000+0  94712-4 0  9998
2 49281  87.9150 291.3900 0001704  87.6642 272.4686 13.20771117218629
ONEWEB-0353             
1 49282U 21090D   26083.11101018 -.00000173  00000+0 -50101-3 0  9991
2 49282  87.8960 306.6840 0001756  92.8974 267.2356 13.14504539216409
ONEWEB-0356             
1 49283U 21090E   26083.30282043  .00000110  00000+0  23909-3 0  9996
2 49283  87.9148 291.3836 0001103 114.6583 245.4666 13.20770954218620
ONEWEB-0358             
1 49284U 21090F   26083.10554501 -.00000015  00000+0 -67607-4 0  9996
2 49284  87.9151 291.4259 0001583  86.4842 273.6472 13.20771055219320
ONEWEB-0359             
1 49285U 21090G   26083.10238370 -.00000004  00000+0 -42287-4 0  9995
2 49285  87.9151 291.4238 0001592  78.8150 281.3163 13.20771898219301
ONEWEB-0360             
1 49286U 21090H   26083.09291050  .00000025  00000+0  28452-4 0  9997
2 49286  87.9150 291.4319 0001687  83.1255 277.0070 13.20771164218619
ONEWEB-0361             
1 49287U 21090J   26083.30124397  .00000049  00000+0  88158-4 0  9996
2 49287  87.9150 291.3880 0001523  90.7161 269.4147 13.20770807219097
ONEWEB-0362             
1 49288U 21090K   26083.18660443 -.00000026  00000+0 -96922-4 0  9995
2 49288  87.9204 321.9225 0001966  78.7364 281.3989 13.19725737215704
ONEWEB-0363             
1 49289U 21090L   26083.08975909  .00000028  00000+0  36864-4 0  9990
2 49289  87.9149 291.4313 0001362  91.8142 268.3147 13.20771259219079
ONEWEB-0364             
1 49290U 21090M   26083.27914167  .00000045  00000+0  78948-4 0  9990
2 49290  87.9140 291.4061 0001717  87.2839 272.8490 13.20771383220237
