[{"OBJECT_NAME":"ONEWEB-0351","OBJECT_ID":"2021-083AF","EPOCH":"2026-03-24T02:36:19.673856","MEAN_MOTION":13.20772058,"ECCENTRICITY":0.00025828,"INCLINATION":87.9152,"RA_OF_ASC_NODE":291.4264,"ARG_OF_PERICENTER":87.1571,"MEAN_ANOMALY":272.9858,"EPHEMERIS_TYPE":0,"CLASSIFICATION_TYPE":"U","NORAD_CAT_ID":49215,"ELEMENT_SET_NO":999,"REV_AT_EPOCH":22554,"BSTAR":-3.2954932e-5,"MEAN_MOTION_DOT":0,"MEAN_MOTION_DDOT":0},{"OBJECT_NAME":"ONEWEB-0352","OBJECT_ID":"2021-083AG","EPOCH":"2026-03-24T03:55:00.671808","MEAN_MOTION":13.13471932,"ECCENTRICITY":0.00021758,"INCLINATION":87.9015,"RA_OF_ASC_NODE":337.1565,"ARG_OF_PERICENTER":81.5114,"MEAN_ANOMALY":278.6261,"EPHEMERIS_TYPE":0,"CLASSIFICATION_TYPE":"U","NORAD_CAT_ID":49216,"ELEMENT_SET_NO":999,"REV_AT_EPOCH":21986,"BSTAR":0.00076475775,"MEAN_MOTION_DOT":2.92e-6,"MEAN_MOTION_DDOT":0},{"OBJECT_NAME":"ONEWEB-0354","OBJECT_ID":"2021-083AH","EPOCH":"2026-03-24T06:51:03.638592","MEAN_MOTION":13.20771608,"ECCENTRICITY":0.00016276,"INCLINATION":87.9151,"RA_OF_ASC_NODE":291.3902,"ARG_OF_PERICENTER":79.1088,"MEAN_ANOMALY":281.0229,"EPHEMERIS_TYPE":0,"CLASSIFICATION_TYPE":"U","NORAD_CAT_ID":49217,"ELEMENT_SET_NO":999,"REV_AT_EPOCH":22560,"BSTAR":0.00012051407,"MEAN_MOTION_DOT":6.2e-7,"MEAN_MOTION_DDOT":0},{"OBJECT_NAME":"ONEWEB-0355","OBJECT_ID":"2021-083AJ","EPOCH":"2026-03-24T04:36:39.265632","MEAN_MOTION":13.13470799,"ECCENTRICITY":0.00019139,"INCLINATION":87.9008,"RA_OF_ASC_NODE":337.1599,"ARG_OF_PERICENTER":75.3211,"MEAN_ANOMALY":284.813,"EPHEMERIS_TYPE":0,"CLASSIFICATION_TYPE":"U","NORAD_CAT_ID":49218,"ELEMENT_SET_NO":999,"REV_AT_EPOCH":21974,"BSTAR":-0.00056103629,"MEAN_MOTION_DOT":-1.92e-6,"MEAN_MOTION_DDOT":0},{"OBJECT_NAME":"ONEWEB-0357","OBJECT_ID":"2021-083AK","EPOCH":"2026-03-24T06:46:30.890208","MEAN_MOTION":13.20771508,"ECCENTRICITY":0.00018765,"INCLINATION":87.9147,"RA_OF_ASC_NODE":291.3856,"ARG_OF_PERICENTER":87.8384,"MEAN_ANOMALY":272.2964,"EPHEMERIS_TYPE":0,"CLASSIFICATION_TYPE":"U","NORAD_CAT_ID":49219,"ELEMENT_SET_NO":999,"REV_AT_EPOCH":22560,"BSTAR":0.00016433948,"MEAN_MOTION_DOT":8.0e-7,"MEAN_MOTION_DDOT":0},{"OBJECT_NAME":"ONEWEB-0332","OBJECT_ID":"2021-090A","EPOCH":"2026-03-24T02:51:16.806528","MEAN_MOTION":13.14504171,"ECCENTRICITY":0.00017857,"INCLINATION":87.8959,"RA_OF_ASC_NODE":306.6879,"ARG_OF_PERICENTER":90.3844,"MEAN_ANOMALY":269.749,"EPHEMERIS_TYPE":0,"CLASSIFICATION_TYPE":"U","NORAD_CAT_ID":49279,"ELEMENT_SET_NO":999,"REV_AT_EPOCH":21640,"BSTAR":-0.00019844709,"MEAN_MOTION_DOT":-6.1e-7,"MEAN_MOTION_DDOT":0},{"OBJECT_NAME":"ONEWEB-0347","OBJECT_ID":"2021-090B","EPOCH":"2026-03-24T06:32:53.155680","MEAN_MOTION":13.20771716,"ECCENTRICITY":0.00017491,"INCLINATION":87.915,"RA_OF_ASC_NODE":291.3963,"ARG_OF_PERICENTER":98.1206,"MEAN_ANOMALY":262.0126,"EPHEMERIS_TYPE":0,"CLASSIFICATION_TYPE":"U","NORAD_CAT_ID":49280,"ELEMENT_SET_NO":999,"REV_AT_EPOCH":21983,"BSTAR":8.6821363e-5,"MEAN_MOTION_DOT":4.8e-7,"MEAN_MOTION_DDOT":0},{"OBJECT_NAME":"ONEWEB-0349","OBJECT_ID":"2021-090C","EPOCH":"2026-03-24T07:18:20.596320","MEAN_MOTION":13.20771117,"ECCENTRICITY":0.00017048,"INCLINATION":87.915,"RA_OF_ASC_NODE":291.39,"ARG_OF_PERICENTER":87.6642,"MEAN_ANOMALY":272.4686,"EPHEMERIS_TYPE":0,"CLASSIFICATION_TYPE":"U","NORAD_CAT_ID":49281,"ELEMENT_SET_NO":999,"REV_AT_EPOCH":21862,"BSTAR":9.4712416e-5,"MEAN_MOTION_DOT":5.1e-7,"MEAN_MOTION_DDOT":0},{"OBJECT_NAME":"ONEWEB-0353","OBJECT_ID":"2021-090D","EPOCH":"2026-03-24T02:39:51.279552","MEAN_MOTION":13.14504539,"ECCENTRICITY":0.00017566,"INCLINATION":87.896,"RA_OF_ASC_NODE":306.684,"ARG_OF_PERICENTER":92.8974,"MEAN_ANOMALY":267.2356,"EPHEMERIS_TYPE":0,"CLASSIFICATION_TYPE":"U","NORAD_CAT_ID":49282,"ELEMENT_SET_NO":999,"REV_AT_EPOCH":21640,"BSTAR":-0.00050100993,"MEAN_MOTION_DOT":-1.73e-6,"MEAN_MOTION_DDOT":0},{"OBJECT_NAME":"ONEWEB-0356","OBJECT_ID":"2021-090E","EPOCH":"2026-03-24T07:16:03.685152","MEAN_MOTION":13.20770954,"ECCENTRICITY":0.00011034,"INCLINATION":87.9148,"RA_OF_ASC_NODE":291.3836,"ARG_OF_PERICENTER":114.6583,"MEAN_ANOMALY":245.4666,"EPHEMERIS_TYPE":0,"CLASSIFICATION_TYPE":"U","NORAD_CAT_ID":49283,"ELEMENT_SET_NO":999,"REV_AT_EPOCH":21862,"BSTAR":0.00023909058,"MEAN_MOTION_DOT":1.1e-6,"MEAN_MOTION_DDOT":0},{"OBJECT_NAME":"ONEWEB-0358","OBJECT_ID":"2021-090F","EPOCH":"2026-03-24T02:31:59.088864","MEAN_MOTION":13.20771055,"ECCENTRICITY":0.00015834,"INCLINATION":87.9151,"RA_OF_ASC_NODE":291.4259,"ARG_OF_PERICENTER":86.4842,"MEAN_ANOMALY":273.6472,"EPHEMERIS_TYPE":0,"CLASSIFICATION_TYPE":"U","NORAD_CAT_ID":49284,"ELEMENT_SET_NO":999,"REV_AT_EPOCH":21932,"BSTAR":-6.7607283e-5,"MEAN_MOTION_DOT":-1.5e-7,"MEAN_MOTION_DDOT":0},{"OBJECT_NAME":"ONEWEB-0359","OBJECT_ID":"2021-090G","EPOCH":"2026-03-24T02:27:25.951680","MEAN_MOTION":13.20771898,"ECCENTRICITY":0.00015924,"INCLINATION":87.9151,"RA_OF_ASC_NODE":291.4238,"ARG_OF_PERICENTER":78.815,"MEAN_ANOMALY":281.3163,"EPHEMERIS_TYPE":0,"CLASSIFICATION_TYPE":"U","NORAD_CAT_ID":49285,"ELEMENT_SET_NO":999,"REV_AT_EPOCH":21930,"BSTAR":-4.2287365e-5,"MEAN_MOTION_DOT":-4.0e-8,"MEAN_MOTION_DDOT":0},{"OBJECT_NAME":"ONEWEB-0360","OBJECT_ID":"2021-090H","EPOCH":"2026-03-24T02:13:47.467200","MEAN_MOTION":13.20771164,"ECCENTRICITY":0.00016872,"INCLINATION":87.915,"RA_OF_ASC_NODE":291.4319,"ARG_OF_PERICENTER":83.1255,"MEAN_ANOMALY":277.007,"EPHEMERIS_TYPE":0,"CLASSIFICATION_TYPE":"U","NORAD_CAT_ID":49286,"ELEMENT_SET_NO":999,"REV_AT_EPOCH":21861,"BSTAR":2.8451876e-5,"MEAN_MOTION_DOT":2.5e-7,"MEAN_MOTION_DDOT":0},{"OBJECT_NAME":"ONEWEB-0361","OBJECT_ID":"2021-090J","EPOCH":"2026-03-24T07:13:47.479008","MEAN_MOTION":13.20770807,"ECCENTRICITY":0.00015234,"INCLINATION":87.915,"RA_OF_ASC_NODE":291.388,"ARG_OF_PERICENTER":90.7161,"MEAN_ANOMALY":269.4147,"EPHEMERIS_TYPE":0,"CLASSIFICATION_TYPE":"U","NORAD_CAT_ID":49287,"ELEMENT_SET_NO":999,"REV_AT_EPOCH":21909,"BSTAR":8.8158196e-5,"MEAN_MOTION_DOT":4.9e-7,"MEAN_MOTION_DDOT":0},{"OBJECT_NAME":"ONEWEB-0362","OBJECT_ID":"2021-090K","EPOCH":"2026-03-24T04:28:42.622752","MEAN_MOTION":13.19725737,"ECCENTRICITY":0.00019667,"INCLINATION":87.9204,"RA_OF_ASC_NODE":321.9225,"ARG_OF_PERICENTER":78.7364,"MEAN_ANOMALY":281.3989,"EPHEMERIS_TYPE":0,"CLASSIFICATION_TYPE":"U","NORAD_CAT_ID":49288,"ELEMENT_SET_NO":999,"REV_AT_EPOCH":21570,"BSTAR":-9.6921866e-5,"MEAN_MOTION_DOT":-2.6e-7,"MEAN_MOTION_DDOT":0},{"OBJECT_NAME":"ONEWEB-0363","OBJECT_ID":"2021-090L","EPOCH":"2026-03-24T02:09:15.185376","MEAN_MOTION":13.20771259,"ECCENTRICITY":0.00013621,"INCLINATION":87.9149,"RA_OF_ASC_NODE":291.4313,"ARG_OF_PERICENTER":91.8142,"MEAN_ANOMALY":268.3147,"EPHEMERIS_TYPE":0,"CLASSIFICATION_TYPE":"U","NORAD_CAT_ID":49289,"ELEMENT_SET_NO":999,"REV_AT_EPOCH":21907,"BSTAR":3.6864161e-5,"MEAN_MOTION_DOT":2.8e-7,"MEAN_MOTION_DDOT":0},{"OBJECT_NAME":"ONEWEB-0364","OBJECT_ID":"2021-090M","EPOCH":"2026-03-24T06:41:57.840288","MEAN_MOTION":13.20771383,"ECCENTRICITY":0.00017176,"INCLINATION":87.914,"RA_OF_ASC_NODE":291.4061,"ARG_OF_PERICENTER":87.2839,"MEAN_ANOMALY":272.849,"EPHEMERIS_TYPE":0,"CLASSIFICATION_TYPE":"U","NORAD_CAT_ID":49290,"ELEMENT_SET_NO":999,"REV_AT_EPOCH":22023,"BSTAR":7.8947576e-5,"MEAN_MOTION_DOT":4.5e-7,"MEAN_MOTION_DDOT":0}]
